[Satellite]
VERSION=1.1
NAME=IRIDIUM 62 [+]
NICKNAME=IRIDIUM 62 [+]
TLE1=1 25285U 98021A   15055.50300417  .00000280  00000-0  92878-4 0  9996
TLE2=2 25285  86.3966 216.5348 0002009 114.2557 245.8848 14.34216240884092
